[{"OBJECT_NAME":"STARLINK-5329","OBJECT_ID":"2023-065L","EPOCH":"2026-03-09T22:00:01.999584","MEAN_MOTION":15.07028896,"ECCENTRICITY":0.00010618,"INCLINATION":43.0012,"RA_OF_ASC_NODE":209.1261,"ARG_OF_PERICENTER":301.7755,"MEAN_ANOMALY":238.7903,"EPHEMERIS_TYPE":0,"CLASSIFICATION_TYPE":"U","NORAD_CAT_ID":56513,"ELEMENT_SET_NO":999,"REV_AT_EPOCH":572,"BSTAR":0.0044050098,"MEAN_MOTION_DOT":0.00067561,"MEAN_MOTION_DDOT":0},{"OBJECT_NAME":"OBJECT A","OBJECT_ID":"2025-313A","EPOCH":"2026-03-09T21:22:42.572064","MEAN_MOTION":14.66981537,"ECCENTRICITY":0.02771301,"INCLINATION":97.5525,"RA_OF_ASC_NODE":140.9497,"ARG_OF_PERICENTER":295.9559,"MEAN_ANOMALY":61.3334,"EPHEMERIS_TYPE":0,"CLASSIFICATION_TYPE":"U","NORAD_CAT_ID":67248,"ELEMENT_SET_NO":999,"REV_AT_EPOCH":1046,"BSTAR":0.0001505143,"MEAN_MOTION_DOT":1.44e-5,"MEAN_MOTION_DDOT":0}]
